{"type": "FeatureCollection", "features": [ {"type": "Feature", "properties": {"norad_id": 34962, "name": "COSMOS 2251 DEB", "group": "cosmos-2251-debris", "lat": -58.8558006885096, "lon": 144.5878318169177, "alt_km": 730.5730196876393, "timestamp": "2025-12-23T16:57:12.750388+00:00", "meta": {"OBJECT_NAME": "COSMOS 2251 DEB", "OBJECT_ID": "1993-036AER", "EPOCH": "2025-12-22T13:01:35.530176", "MEAN_MOTION": 14.46544161, "ECCENTRICITY": 0.00189039, "INCLINATION": 74.0281, "RA_OF_ASC_NODE": 175.0517, "ARG_OF_PERICENTER": 287.2321, "MEAN_ANOMALY": 72.6768, "EPHEMERIS_TYPE": 0, "CLASSIFICATION_TYPE": "U", "NORAD_CAT_ID": 34962, "ELEMENT_SET_NO": 999, "REV_AT_EPOCH": 87720, "BSTAR": 0.00036229259, "MEAN_MOTION_DOT": 1.281e-05, "MEAN_MOTION_DDOT": 0}, "tle": {"line1": "1 34962U 93036AER 25356.54277234  .00001281  00000+0  36229-3 0  9996", "line2": "2 34962  74.0281 175.0517 0018903 287.2321  72.6768 14.46544161877206"}}, "geometry": {"type": "Point", "coordinates": [144.5878318169177, -58.8558006885096]}}, {"type": "Feature", "properties": {"norad_id": 34963, "name": "COSMOS 2251 DEB", "group": "cosmos-2251-debris", "lat": 15.923905554219129, "lon": 26.92453764561003, "alt_km": 750.261284545707, "timestamp": "2025-12-23T16:57:12.750399+00:00", "meta": {"OBJECT_NAME": "COSMOS 2251 DEB", "OBJECT_ID": "1993-036AES", "EPOCH": "2025-12-22T19:22:05.292480", "MEAN_MOTION": 14.51171721, "ECCENTRICITY": 0.00421225, "INCLINATION": 74.1708, "RA_OF_ASC_NODE": 23.9592, "ARG_OF_PERICENTER": 218.4859, "MEAN_ANOMALY": 141.3297, "EPHEMERIS_TYPE": 0, "CLASSIFICATION_TYPE": "U", "NORAD_CAT_ID": 34963, "ELEMENT_SET_NO": 999, "REV_AT_EPOCH": 86947, "BSTAR": 0.0011861563, "MEAN_MOTION_DOT": 4.738e-05, "MEAN_MOTION_DDOT": 0}, "tle": {"line1": "1 34963U 93036AES 25356.80700570  .00004738  00000+0  11862-2 0  9995", "line2": "2 34963  74.1708  23.9592 0042122 218.4859 141.3297 14.51171721869473"}}, "geometry": {"type": "Point", "coordinates": [26.92453764561003, 15.923905554219129]}}, {"type": "Feature", "properties": {"norad_id": 34964, "name": "COSMOS 2251 DEB", "group": "cosmos-2251-debris", "lat": -23.67479862927758, "lon": 155.9961680891265, "alt_km": 750.9753376603503, "timestamp": "2025-12-23T16:57:12.750409+00:00", "meta": {"OBJECT_NAME": "COSMOS 2251 DEB", "OBJECT_ID": "1993-036AET", "EPOCH": "2025-12-18T07:25:04.519776", "MEAN_MOTION": 14.00628567, "ECCENTRICITY": 0.02123167, "INCLINATION": 73.9712, "RA_OF_ASC_NODE": 338.1457, "ARG_OF_PERICENTER": 195.4091, "MEAN_ANOMALY": 164.0515, "EPHEMERIS_TYPE": 0, "CLASSIFICATION_TYPE": "U", "NORAD_CAT_ID": 34964, "ELEMENT_SET_NO": 999, "REV_AT_EPOCH": 84556, "BSTAR": 0.00089791859, "MEAN_MOTION_DOT": 1.6e-05, "MEAN_MOTION_DDOT": 0}, "tle": {"line1": "1 34964U 93036AET 25352.30908009  .00001600  00000+0  89792-3 0  9997", "line2": "2 34964  73.9712 338.1457 0212316 195.4091 164.0515 14.00628567845561"}}, "geometry": {"type": "Point", "coordinates": [155.9961680891265, -23.67479862927758]}}, {"type": "Feature", "properties": {"norad_id": 34965, "name": "COSMOS 2251 DEB", "group": "cosmos-2251-debris", "lat": 10.211457728527739, "lon": 110.89014511839021, "alt_km": 744.729592609182, "timestamp": "2025-12-23T16:57:12.750419+00:00", "meta": {"OBJECT_NAME": "COSMOS 2251 DEB", "OBJECT_ID": "1993-036AEU", "EPOCH": "2025-12-22T14:23:15.701856", "MEAN_MOTION": 14.48730461, "ECCENTRICITY": 0.00264392, "INCLINATION": 74.0517, "RA_OF_ASC_NODE": 110.009, "ARG_OF_PERICENTER": 236.0306, "MEAN_ANOMALY": 123.8341, "EPHEMERIS_TYPE": 0, "CLASSIFICATION_TYPE": "U", "NORAD_CAT_ID": 34965, "ELEMENT_SET_NO": 999, "REV_AT_EPOCH": 87256, "BSTAR": 0.00029767583, "MEAN_MOTION_DOT": 1.1e-05, "MEAN_MOTION_DDOT": 0}, "tle": {"line1": "1 34965U 93036AEU 25356.59948729  .00001100  00000+0  29768-3 0  9998", "line2": "2 34965  74.0517 110.0090 0026439 236.0306 123.8341 14.48730461872566"}}, "geometry": {"type": "Point", "coordinates": [110.89014511839021, 10.211457728527739]}}, {"type": "Feature", "properties": {"norad_id": 34967, "name": "COSMOS 2251 DEB", "group": "cosmos-2251-debris", "lat": 66.21537250236192, "lon": 12.766080933728384, "alt_km": 737.5644905747658, "timestamp": "2025-12-23T16:57:12.750429+00:00", "meta": {"OBJECT_NAME": "COSMOS 2251 DEB", "OBJECT_ID": "1993-036AEW", "EPOCH": "2025-12-13T00:27:20.673792", "MEAN_MOTION": 14.44269018, "ECCENTRICITY": 0.00380101, "INCLINATION": 73.9933, "RA_OF_ASC_NODE": 253.3374, "ARG_OF_PERICENTER": 39.5345, "MEAN_ANOMALY": 320.8573, "EPHEMERIS_TYPE": 0, "CLASSIFICATION_TYPE": "U", "NORAD_CAT_ID": 34967, "ELEMENT_SET_NO": 999, "REV_AT_EPOCH": 64961, "BSTAR": 0.0011451852, "MEAN_MOTION_DOT": 3.946e-05, "MEAN_MOTION_DDOT": 0}, "tle": {"line1": "1 34967U 93036AEW 25347.01898928  .00003946  00000+0  11452-2 0  9992", "line2": "2 34967  73.9933 253.3374 0038010  39.5345 320.8573 14.44269018649616"}}, "geometry": {"type": "Point", "coordinates": [12.766080933728384, 66.21537250236192]}}, {"type": "Feature", "properties": {"norad_id": 34968, "name": "COSMOS 2251 DEB", "group": "cosmos-2251-debris", "lat": -17.49408234880271, "lon": 51.341235824048496, "alt_km": 750.3901439063766, "timestamp": "2025-12-23T16:57:12.750439+00:00", "meta": {"OBJECT_NAME": "COSMOS 2251 DEB", "OBJECT_ID": "1993-036AEX", "EPOCH": "2025-12-23T01:14:18.762720", "MEAN_MOTION": 14.59422462, "ECCENTRICITY": 0.00871055, "INCLINATION": 74.0381, "RA_OF_ASC_NODE": 227.4133, "ARG_OF_PERICENTER": 345.2402, "MEAN_ANOMALY": 14.6221, "EPHEMERIS_TYPE": 0, "CLASSIFICATION_TYPE": "U", "NORAD_CAT_ID": 34968, "ELEMENT_SET_NO": 999, "REV_AT_EPOCH": 88628, "BSTAR": 0.00012972503, "MEAN_MOTION_DOT": 6.15e-06, "MEAN_MOTION_DDOT": 0}, "tle": {"line1": "1 34968U 93036AEX 25357.05160605  .00000615  00000+0  12973-3 0  9992", "line2": "2 34968  74.0381 227.4133 0087105 345.2402  14.6221 14.59422462886285"}}, "geometry": {"type": "Point", "coordinates": [51.341235824048496, -17.49408234880271]}}, {"type": "Feature", "properties": {"norad_id": 34969, "name": "COSMOS 2251 DEB", "group": "cosmos-2251-debris", "lat": -57.61803646197146, "lon": -23.769649816741854, "alt_km": 841.5111527728532, "timestamp": "2025-12-23T16:57:12.750449+00:00", "meta": {"OBJECT_NAME": "COSMOS 2251 DEB", "OBJECT_ID": "1993-036AEY", "EPOCH": "2025-12-21T18:18:22.827744", "MEAN_MOTION": 14.32268431, "ECCENTRICITY": 0.00731947, "INCLINATION": 74.0139, "RA_OF_ASC_NODE": 6.6546, "ARG_OF_PERICENTER": 137.5862, "MEAN_ANOMALY": 223.0979, "EPHEMERIS_TYPE": 0, "CLASSIFICATION_TYPE": "U", "NORAD_CAT_ID": 34969, "ELEMENT_SET_NO": 999, "REV_AT_EPOCH": 65266, "BSTAR": 0.0001981389, "MEAN_MOTION_DOT": 5.25e-06, "MEAN_MOTION_DDOT": 0}, "tle": {"line1": "1 34969U 93036AEY 25355.76276421  .00000525  00000+0  19814-3 0  9994", "line2": "2 34969  74.0139   6.6546 0073194 137.5862 223.0979 14.32268431652661"}}, "geometry": {"type": "Point", "coordinates": [-23.769649816741854, -57.61803646197146]}}, {"type": "Feature", "properties": {"norad_id": 34971, "name": "COSMOS 2251 DEB", "group": "cosmos-2251-debris", "lat": 63.03246774403374, "lon": 49.775290663285425, "alt_km": 653.2825174120371, "timestamp": "2025-12-23T16:57:12.750487+00:00", "meta": {"OBJECT_NAME": "COSMOS 2251 DEB", "OBJECT_ID": "1993-036AFA", "EPOCH": "2025-12-18T11:38:13.277760", "MEAN_MOTION": 14.55642375, "ECCENTRICITY": 0.00693978, "INCLINATION": 73.9787, "RA_OF_ASC_NODE": 274.0839, "ARG_OF_PERICENTER": 138.3039, "MEAN_ANOMALY": 342.538, "EPHEMERIS_TYPE": 0, "CLASSIFICATION_TYPE": "U", "NORAD_CAT_ID": 34971, "ELEMENT_SET_NO": 999, "REV_AT_EPOCH": 66256, "BSTAR": 0.00012982435, "MEAN_MOTION_DOT": 5.55e-06, "MEAN_MOTION_DDOT": 0}, "tle": {"line1": "1 34971U 93036AFA 25352.48487590  .00000555  00000+0  12982-3 0  9996", "line2": "2 34971  73.9787 274.0839 0069397 138.3039 342.5380 14.55642375662563"}}, "geometry": {"type": "Point", "coordinates": [49.775290663285425, 63.03246774403374]}}, {"type": "Feature", "properties": {"norad_id": 34972, "name": "COSMOS 2251 DEB", "group": "cosmos-2251-debris", "lat": -33.01372771428839, "lon": 17.678915909971924, "alt_km": 674.9785335764382, "timestamp": "2025-12-23T16:57:12.750498+00:00", "meta": {"OBJECT_NAME": "COSMOS 2251 DEB", "OBJECT_ID": "1993-036AFB", "EPOCH": "2025-12-21T13:38:31.765344", "MEAN_MOTION": 14.73012342, "ECCENTRICITY": 0.00329831, "INCLINATION": 73.9871, "RA_OF_ASC_NODE": 32.6088, "ARG_OF_PERICENTER": 189.946, "MEAN_ANOMALY": 322.6145, "EPHEMERIS_TYPE": 0, "CLASSIFICATION_TYPE": "U", "NORAD_CAT_ID": 34972, "ELEMENT_SET_NO": 999, "REV_AT_EPOCH": 87780, "BSTAR": 0.0011476529, "MEAN_MOTION_DOT": 7.412e-05, "MEAN_MOTION_DDOT": 0}, "tle": {"line1": "1 34972U 93036AFB 25355.56842321  .00007412  00000+0  11477-2 0  9992", "line2": "2 34972  73.9871  32.6088 0032983 189.9460 322.6145 14.73012342877801"}}, "geometry": {"type": "Point", "coordinates": [17.678915909971924, -33.01372771428839]}}, {"type": "Feature", "properties": {"norad_id": 34976, "name": "COSMOS 2251 DEB", "group": "cosmos-2251-debris", "lat": -24.013153786111882, "lon": 112.10286290792851, "alt_km": 663.4303606334643, "timestamp": "2025-12-23T16:57:12.750508+00:00", "meta": {"OBJECT_NAME": "COSMOS 2251 DEB", "OBJECT_ID": "1993-036AFF", "EPOCH": "2025-12-22T20:46:21.906912", "MEAN_MOTION": 14.7677373, "ECCENTRICITY": 0.00478521, "INCLINATION": 74.0584, "RA_OF_ASC_NODE": 286.4319, "ARG_OF_PERICENTER": 331.0215, "MEAN_ANOMALY": 85.833, "EPHEMERIS_TYPE": 0, "CLASSIFICATION_TYPE": "U", "NORAD_CAT_ID": 34976, "ELEMENT_SET_NO": 999, "REV_AT_EPOCH": 88423, "BSTAR": 0.001579307, "MEAN_MOTION_DOT": 0.00011269, "MEAN_MOTION_DDOT": 0}, "tle": {"line1": "1 34976U 93036AFF 25356.86553133  .00011269  00000+0  15793-2 0  9990", "line2": "2 34976  74.0584 286.4319 0047852 331.0215  85.8330 14.76773730884230"}}, "geometry": {"type": "Point", "coordinates": [112.10286290792851, -24.013153786111882]}}]}